[{"OBJECT_NAME":"UHETSAT","OBJECT_ID":"2023-185E","EPOCH":"2026-03-09T22:39:26.455680","MEAN_MOTION":15.29797662,"ECCENTRICITY":0.00118435,"INCLINATION":97.3584,"RA_OF_ASC_NODE":137.3576,"ARG_OF_PERICENTER":307.7346,"MEAN_ANOMALY":52.2821,"EPHEMERIS_TYPE":0,"CLASSIFICATION_TYPE":"U","NORAD_CAT_ID":58466,"ELEMENT_SET_NO":999,"REV_AT_EPOCH":12611,"BSTAR":0.00030513019,"MEAN_MOTION_DOT":8.749e-5,"MEAN_MOTION_DDOT":0},{"OBJECT_NAME":"STARLINK-36456","OBJECT_ID":"2026-003Z","EPOCH":"2026-03-09T11:49:39.908928","MEAN_MOTION":15.27597956,"ECCENTRICITY":9.028e-5,"INCLINATION":42.9995,"RA_OF_ASC_NODE":228.1823,"ARG_OF_PERICENTER":209.28,"MEAN_ANOMALY":150.8002,"EPHEMERIS_TYPE":0,"CLASSIFICATION_TYPE":"U","NORAD_CAT_ID":67357,"ELEMENT_SET_NO":999,"REV_AT_EPOCH":879,"BSTAR":0.00096112705,"MEAN_MOTION_DOT":0.00026295,"MEAN_MOTION_DDOT":0}]
